STARLINK-36799          
1 67958U 26037AC  26079.16668981 -.01893252  00000+0 -15533-1 0  9991
2 67958  42.9986 134.1788 0001368 268.1202  61.2886 15.72934416  4889
STARLINK-36834          
1 67959U 26037AD  26079.16668981 -.01895529  00000+0 -22576-1 0  9996
2 67959  42.9994 134.4397 0001096 264.8198 319.7418 15.63409632  4882
STARLINK-36841          
1 67960U 26037AE  26079.16668981 -.01892154  00000+0 -21669-1 0  9991
2 67960  42.9989 134.4123 0001087 266.3571 329.1810 15.64385055  4881
STARLINK-36912          
1 67961U 26038A   26079.16668981 -.02335630  00000+0 -32754-1 0  9992
2 67961  97.2852  89.9594 0001310  99.0534 262.8340 15.60135963  4887
STARLINK-36881          
1 67962U 26038B   26079.16668981 -.02332138  00000+0 -32229-1 0  9990
2 67962  97.2850  89.9638 0001415  97.0463 274.7963 15.60510256  4885
STARLINK-36357          
1 67963U 26038C   26079.16668981 -.02501979  00000+0 -42530-1 0  9998
2 67963  97.2846  89.9362 0001492 102.0144 216.5539 15.55301525  4887
STARLINK-36349          
1 67964U 26038D   26079.16668981 -.02349688  00000+0 -39568-1 0  9993
2 67964  97.2845  89.9348 0001801 109.3035 201.9118 15.55299598  4881
STARLINK-36806          
1 67965U 26038E   26079.16668981 -.02332811  00000+0 -31125-1 0  9995
2 67965  97.2854  89.9754 0001369  87.9466 311.0983 15.61420720  4884
STARLINK-36820          
1 67966U 26038F   26079.16668981 -.02358785  00000+0 -31051-1 0  9992
2 67966  97.2848  89.9793 0001452  87.6916 320.9779 15.61805159  4886
STARLINK-36819          
1 67967U 26038G   26079.16668981 -.00022040  00000+0 -40461-3 0  9990
2 67967  97.2851  89.8398 0001100  83.2961   5.2138 15.49196328  4882
STARLINK-36812          
1 67968U 26038H   26079.16668981 -.02344287  00000+0 -30367-1 0  9995
2 67968  97.2851  89.9862 0001527  78.3213 346.0603 15.62194967  4883
STARLINK-36709          
1 67969U 26038J   26079.16668981 -.02332847  00000+0 -30483-1 0  9994
2 67969  97.2857  89.9911 0001468  77.2308 358.9666 15.61955650  4886
